CCSDS_OMM_VERS = 2.0
CREATION_DATE  = 
ORIGINATOR     = 

OBJECT_NAME    = SL-14 R/B
OBJECT_ID      = 1991-042B
CENTER_NAME    = EARTH
REF_FRAME      = TEME
TIME_SYSTEM    = UTC
MEAN_ELEMENT_THEORY = SGP/SGP4

EPOCH          = 2026-03-03T14:42:32.760288
MEAN_MOTION    = 14.81822110
ECCENTRICITY   = .00156009
INCLINATION    = 82.4911
RA_OF_ASC_NODE = 225.8810
ARG_OF_PERICENTER = 260.3492
MEAN_ANOMALY   = 99.5960

EPHEMERIS_TYPE = 0
CLASSIFICATION_TYPE = U
NORAD_CAT_ID   = 21423
ELEMENT_SET_NO = 999
REV_AT_EPOCH   = 85217
BSTAR          = .78027462E-4
MEAN_MOTION_DOT = .64E-5
MEAN_MOTION_DDOT = 0

CCSDS_OMM_VERS = 2.0
CREATION_DATE  = 
ORIGINATOR     = 

OBJECT_NAME    = ERS-1
OBJECT_ID      = 1991-050A
CENTER_NAME    = EARTH
REF_FRAME      = TEME
TIME_SYSTEM    = UTC
MEAN_ELEMENT_THEORY = SGP/SGP4

EPOCH          = 2026-03-03T12:15:36.561312
MEAN_MOTION    = 14.39443700
ECCENTRICITY   = .00312939
INCLINATION    = 98.7885
RA_OF_ASC_NODE = 80.5900
ARG_OF_PERICENTER = 219.0387
MEAN_ANOMALY   = 140.8542

EPHEMERIS_TYPE = 0
CLASSIFICATION_TYPE = U
NORAD_CAT_ID   = 21574
ELEMENT_SET_NO = 999
REV_AT_EPOCH   = 81484
BSTAR          = .14609692E-3
MEAN_MOTION_DOT = .411E-5
MEAN_MOTION_DDOT = 0

CCSDS_OMM_VERS = 2.0
CREATION_DATE  = 
ORIGINATOR     = 

OBJECT_NAME    = ARIANE 40 R/B
OBJECT_ID      = 1991-050F
CENTER_NAME    = EARTH
REF_FRAME      = TEME
TIME_SYSTEM    = UTC
MEAN_ELEMENT_THEORY = SGP/SGP4

EPOCH          = 2026-03-03T13:50:08.801664
MEAN_MOTION    = 14.42888448
ECCENTRICITY   = .00043665
INCLINATION    = 98.2025
RA_OF_ASC_NODE = 115.0421
ARG_OF_PERICENTER = 94.4995
MEAN_ANOMALY   = 265.6694

EPHEMERIS_TYPE = 0
CLASSIFICATION_TYPE = U
NORAD_CAT_ID   = 21610
ELEMENT_SET_NO = 999
REV_AT_EPOCH   = 81811
BSTAR          = .1323488E-3
MEAN_MOTION_DOT = .4E-5
MEAN_MOTION_DDOT = 0

CCSDS_OMM_VERS = 2.0
CREATION_DATE  = 
ORIGINATOR     = 

OBJECT_NAME    = INTERCOSMOS 25
OBJECT_ID      = 1991-086A
CENTER_NAME    = EARTH
REF_FRAME      = TEME
TIME_SYSTEM    = UTC
MEAN_ELEMENT_THEORY = SGP/SGP4

EPOCH          = 2026-03-03T15:08:53.090592
MEAN_MOTION    = 12.11980302
ECCENTRICITY   = .1487059
INCLINATION    = 82.6064
RA_OF_ASC_NODE = 313.6696
ARG_OF_PERICENTER = 129.9843
MEAN_ANOMALY   = 244.1659

EPHEMERIS_TYPE = 0
CLASSIFICATION_TYPE = U
NORAD_CAT_ID   = 21819
ELEMENT_SET_NO = 999
REV_AT_EPOCH   = 49595
BSTAR          = .31507153E-3
MEAN_MOTION_DOT = .1641E-4
MEAN_MOTION_DDOT = 0

CCSDS_OMM_VERS = 2.0
CREATION_DATE  = 
ORIGINATOR     = 

OBJECT_NAME    = SL-8 R/B
OBJECT_ID      = 1992-008B
CENTER_NAME    = EARTH
REF_FRAME      = TEME
TIME_SYSTEM    = UTC
MEAN_ELEMENT_THEORY = SGP/SGP4

EPOCH          = 2026-03-03T14:41:41.367840
MEAN_MOTION    = 13.75969817
ECCENTRICITY   = .00352461
INCLINATION    = 82.9227
RA_OF_ASC_NODE = 272.3003
ARG_OF_PERICENTER = 149.8920
MEAN_ANOMALY   = 264.8292

EPHEMERIS_TYPE = 0
CLASSIFICATION_TYPE = U
NORAD_CAT_ID   = 21876
ELEMENT_SET_NO = 999
REV_AT_EPOCH   = 70858
BSTAR          = -.9110186E-5
MEAN_MOTION_DOT = .7E-7
MEAN_MOTION_DDOT = 0

CCSDS_OMM_VERS = 2.0
CREATION_DATE  = 
ORIGINATOR     = 

OBJECT_NAME    = SL-8 R/B
OBJECT_ID      = 1992-020B
CENTER_NAME    = EARTH
REF_FRAME      = TEME
TIME_SYSTEM    = UTC
MEAN_ELEMENT_THEORY = SGP/SGP4

EPOCH          = 2026-03-03T15:57:26.519328
MEAN_MOTION    = 13.75548657
ECCENTRICITY   = .00279088
INCLINATION    = 82.9340
RA_OF_ASC_NODE = 158.2335
ARG_OF_PERICENTER = 316.3182
MEAN_ANOMALY   = 154.4220

EPHEMERIS_TYPE = 0
CLASSIFICATION_TYPE = U
NORAD_CAT_ID   = 21938
ELEMENT_SET_NO = 999
REV_AT_EPOCH   = 70030
BSTAR          = .81507948E-4
MEAN_MOTION_DOT = .94E-6
MEAN_MOTION_DDOT = 0

CCSDS_OMM_VERS = 2.0
CREATION_DATE  = 
ORIGINATOR     = 

OBJECT_NAME    = USA 81
OBJECT_ID      = 1992-023A
CENTER_NAME    = EARTH
REF_FRAME      = TEME
TIME_SYSTEM    = UTC
MEAN_ELEMENT_THEORY = SGP/SGP4

EPOCH          = 2026-03-03T07:14:31.017696
MEAN_MOTION    = 14.32365444
ECCENTRICITY   = .00025893
INCLINATION    = 85.0098
RA_OF_ASC_NODE = 135.1261
ARG_OF_PERICENTER = 82.4759
MEAN_ANOMALY   = 277.6728

EPHEMERIS_TYPE = 0
CLASSIFICATION_TYPE = U
NORAD_CAT_ID   = 21949
ELEMENT_SET_NO = 999
REV_AT_EPOCH   = 9387
BSTAR          = .76723162E-4
MEAN_MOTION_DOT = .227E-5
MEAN_MOTION_DDOT = 0

CCSDS_OMM_VERS = 2.0
CREATION_DATE  = 
ORIGINATOR     = 

OBJECT_NAME    = COSMOS 2219
OBJECT_ID      = 1992-076A
CENTER_NAME    = EARTH
REF_FRAME      = TEME
TIME_SYSTEM    = UTC
MEAN_ELEMENT_THEORY = SGP/SGP4

EPOCH          = 2026-03-03T08:48:10.381248
MEAN_MOTION    = 14.14089002
ECCENTRICITY   = .00193338
INCLINATION    = 71.0618
RA_OF_ASC_NODE = 31.2845
ARG_OF_PERICENTER = 215.5019
MEAN_ANOMALY   = 144.4818

EPHEMERIS_TYPE = 0
CLASSIFICATION_TYPE = U
NORAD_CAT_ID   = 22219
ELEMENT_SET_NO = 999
REV_AT_EPOCH   = 71748
BSTAR          = .18266337E-3
MEAN_MOTION_DOT = .301E-5
MEAN_MOTION_DDOT = 0

CCSDS_OMM_VERS = 2.0
CREATION_DATE  = 
ORIGINATOR     = 

OBJECT_NAME    = SL-16 R/B
OBJECT_ID      = 1992-076B
CENTER_NAME    = EARTH
REF_FRAME      = TEME
TIME_SYSTEM    = UTC
MEAN_ELEMENT_THEORY = SGP/SGP4

EPOCH          = 2026-03-03T15:05:52.799712
MEAN_MOTION    = 14.16859983
ECCENTRICITY   = .00106126
INCLINATION    = 70.9999
RA_OF_ASC_NODE = 201.1387
ARG_OF_PERICENTER = 107.6115
MEAN_ANOMALY   = 334.3460

EPHEMERIS_TYPE = 0
CLASSIFICATION_TYPE = U
NORAD_CAT_ID   = 22220
ELEMENT_SET_NO = 999
REV_AT_EPOCH   = 72097
BSTAR          = .52414153E-4
MEAN_MOTION_DOT = .57E-6
MEAN_MOTION_DDOT = 0

CCSDS_OMM_VERS = 2.0
CREATION_DATE  = 
ORIGINATOR     = 

OBJECT_NAME    = COSMOS 2221
OBJECT_ID      = 1992-080A
CENTER_NAME    = EARTH
REF_FRAME      = TEME
TIME_SYSTEM    = UTC
MEAN_ELEMENT_THEORY = SGP/SGP4

EPOCH          = 2026-03-03T14:50:21.841440
MEAN_MOTION    = 14.96173708
ECCENTRICITY   = .00134992
INCLINATION    = 82.5018
RA_OF_ASC_NODE = 284.8976
ARG_OF_PERICENTER = 208.3536
MEAN_ANOMALY   = 151.6953

EPHEMERIS_TYPE = 0
CLASSIFICATION_TYPE = U
NORAD_CAT_ID   = 22236
ELEMENT_SET_NO = 999
REV_AT_EPOCH   = 77988
BSTAR          = .19758691E-3
MEAN_MOTION_DOT = .2254E-4
MEAN_MOTION_DDOT = 0

CCSDS_OMM_VERS = 2.0
CREATION_DATE  = 
ORIGINATOR     = 

OBJECT_NAME    = SL-16 R/B
OBJECT_ID      = 1992-093B
CENTER_NAME    = EARTH
REF_FRAME      = TEME
TIME_SYSTEM    = UTC
MEAN_ELEMENT_THEORY = SGP/SGP4

EPOCH          = 2026-03-03T07:24:16.070976
MEAN_MOTION    = 14.15449567
ECCENTRICITY   = .00062864
INCLINATION    = 71.0238
RA_OF_ASC_NODE = 17.6603
ARG_OF_PERICENTER = 300.4923
MEAN_ANOMALY   = 59.5579

EPHEMERIS_TYPE = 0
CLASSIFICATION_TYPE = U
NORAD_CAT_ID   = 22285
ELEMENT_SET_NO = 999
REV_AT_EPOCH   = 71225
BSTAR          = -.43251775E-4
MEAN_MOTION_DOT = -.132E-5
MEAN_MOTION_DDOT = 0

CCSDS_OMM_VERS = 2.0
CREATION_DATE  = 
ORIGINATOR     = 

OBJECT_NAME    = COSMOS 2228
OBJECT_ID      = 1992-094A
CENTER_NAME    = EARTH
REF_FRAME      = TEME
TIME_SYSTEM    = UTC
MEAN_ELEMENT_THEORY = SGP/SGP4

EPOCH          = 2026-03-03T13:43:27.689664
MEAN_MOTION    = 14.97153333
ECCENTRICITY   = .00171871
INCLINATION    = 82.5145
RA_OF_ASC_NODE = 243.1692
ARG_OF_PERICENTER = 326.4851
MEAN_ANOMALY   = 33.5283

EPHEMERIS_TYPE = 0
CLASSIFICATION_TYPE = U
NORAD_CAT_ID   = 22286
ELEMENT_SET_NO = 999
REV_AT_EPOCH   = 77514
BSTAR          = .2823554E-3
MEAN_MOTION_DOT = .3295E-4
MEAN_MOTION_DDOT = 0

