SL-14 R/B               
1 21423U 91042B   26062.61287917  .00000640  00000+0  78027-4 0  9992
2 21423  82.4911 225.8810 0015600 260.3492  99.5960 14.81822110852172
ERS-1                   
1 21574U 91050A   26062.51083983  .00000411  00000+0  14610-3 0  9997
2 21574  98.7885  80.5900 0031293 219.0387 140.8542 14.39443700814840
ARIANE 40 R/B           
1 21610U 91050F   26062.57649076  .00000400  00000+0  13235-3 0  9995
2 21610  98.2025 115.0421 0004366  94.4995 265.6694 14.42888448818119
INTERCOSMOS 25          
1 21819U 91086A   26062.63117003  .00001641  00000+0  31507-3 0  9992
2 21819  82.6064 313.6696 1487059 129.9843 244.1659 12.11980302495953
SL-8 R/B                
1 21876U 92008B   26062.61228435  .00000007  00000+0 -91102-5 0  9995
2 21876  82.9227 272.3003 0035246 149.8920 264.8292 13.75969817708583
SL-8 R/B                
1 21938U 92020B   26062.66489027  .00000094  00000+0  81508-4 0  9992
2 21938  82.9340 158.2335 0027908 316.3182 154.4220 13.75548657700307
USA 81                  
1 21949U 92023A   26062.30174789  .00000227  00000+0  76723-4 0  9995
2 21949  85.0098 135.1261 0002589  82.4759 277.6728 14.32365444 93877
COSMOS 2219             
1 22219U 92076A   26062.36678682  .00000301  00000+0  18266-3 0  9991
2 22219  71.0618  31.2845 0019333 215.5019 144.4818 14.14089002717482
SL-16 R/B               
1 22220U 92076B   26062.62908333  .00000057  00000+0  52414-4 0  9993
2 22220  70.9999 201.1387 0010612 107.6115 334.3460 14.16859983720978
COSMOS 2221             
1 22236U 92080A   26062.61830835  .00002254  00000+0  19759-3 0  9990
2 22236  82.5018 284.8976 0013499 208.3536 151.6953 14.96173708779883
SL-16 R/B               
1 22285U 92093B   26062.30851934 -.00000132  00000+0 -43252-4 0  9998
2 22285  71.0238  17.6603 0006286 300.4923  59.5579 14.15449567712251
COSMOS 2228             
1 22286U 92094A   26062.57184826  .00003295  00000+0  28236-3 0  9993
2 22286  82.5145 243.1692 0017187 326.4851  33.5283 14.97153333775144
